[
    {
        "Altitude(m)": 715830.5818795104,
        "Argument of Periapsis(deg)": 0.0,
        "Eccentricity": 0.0,
        "Inclination(deg)": 45.0,
        "Latitude(deg)": -40.20061278058015,
        "Longitude(deg)": -122.16731099955399,
        "Mean Anomaly(deg)": 294.5455,
        "RAAN(deg)": 35.0,
        "Satellite Name": "Constellation 1 172",
        "Satellite Number": 172,
        "Semi-Major Axis(m)": 7083131.272910544,
        "Time(s)": 0
    },
    {
        "Altitude(m)": 715820.9347001128,
        "Argument of Periapsis(deg)": 5.994800624540561e-05,
        "Eccentricity": 0.0,
        "Inclination(deg)": 45.0,
        "Latitude(deg)": -40.177331506518534,
        "Longitude(deg)": -122.09837103906521,
        "Mean Anomaly(deg)": 294.6062011402499,
        "RAAN(deg)": 34.999943410834426,
        "Satellite Name": "Constellation 1 172",
        "Satellite Number": 172,
        "Semi-Major Axis(m)": 7083131.272910544,
        "Time(s)": 1
    },
    {
        "Altitude(m)": 715811.2686781454,
        "Argument of Periapsis(deg)": 0.00011989601249081122,
        "Eccentricity": 0.0,
        "Inclination(deg)": 45.0,
        "Latitude(deg)": -40.15400406546781,
        "Longitude(deg)": -122.02948090968097,
        "Mean Anomaly(deg)": 294.6669022804998,
        "RAAN(deg)": 34.99988682166886,
        "Satellite Name": "Constellation 1 172",
        "Satellite Number": 172,
        "Semi-Major Axis(m)": 7083131.272910544,
        "Time(s)": 2
    },
    {
        "Altitude(m)": 715801.5838488769,
        "Argument of Periapsis(deg)": 0.00017984401873621686,
        "Eccentricity": 0.0,
        "Inclination(deg)": 45.0,
        "Latitude(deg)": -40.130630526005056,
        "Longitude(deg)": -121.96064063452069,
        "Mean Anomaly(deg)": 294.72760342074974,
        "RAAN(deg)": 34.999830232503285,
        "Satellite Name": "Constellation 1 172",
        "Satellite Number": 172,
        "Semi-Major Axis(m)": 7083131.272910544,
        "Time(s)": 3
    },
    {
        "Altitude(m)": 715791.8802476363,
        "Argument of Periapsis(deg)": 0.00023979202498162244,
        "Eccentricity": 0.0,
        "Inclination(deg)": 45.0,
        "Latitude(deg)": -40.107210956719015,
        "Longitude(deg)": -121.89185023624684,
        "Mean Anomaly(deg)": 294.7883045609996,
        "RAAN(deg)": 34.99977364333772,
        "Satellite Name": "Constellation 1 172",
        "Satellite Number": 172,
        "Semi-Major Axis(m)": 7083131.272910544,
        "Time(s)": 4
    },
    {
        "Altitude(m)": 715782.1579098284,
        "Argument of Periapsis(deg)": 0.00029974003122702807,
        "Eccentricity": 0.0,
        "Inclination(deg)": 45.0,
        "Latitude(deg)": -40.08374542620942,
        "Longitude(deg)": -121.82310973706625,
        "Mean Anomaly(deg)": 294.8490057012495,
        "RAAN(deg)": 34.99971705417215,
        "Satellite Name": "Constellation 1 172",
        "Satellite Number": 172,
        "Semi-Major Axis(m)": 7083131.272910544,
        "Time(s)": 5
    },
    {
        "Altitude(m)": 715772.4168709165,
        "Argument of Periapsis(deg)": 0.00035968803747243373,
        "Eccentricity": 0.0,
        "Inclination(deg)": 45.0,
        "Latitude(deg)": -40.060234003086386,
        "Longitude(deg)": -121.75441915873161,
        "Mean Anomaly(deg)": 294.9097068414994,
        "RAAN(deg)": 34.99966046500658,
        "Satellite Name": "Constellation 1 172",
        "Satellite Number": 172,
        "Semi-Major Axis(m)": 7083131.272910544,
        "Time(s)": 6
    },
    {
        "Altitude(m)": 715762.6571664254,
        "Argument of Periapsis(deg)": 0.00041963604371783933,
        "Eccentricity": 0.0,
        "Inclination(deg)": 45.0,
        "Latitude(deg)": -40.036676755969594,
        "Longitude(deg)": -121.68577869063975,
        "Mean Anomaly(deg)": 294.97040798174936,
        "RAAN(deg)": 34.99960387584101,
        "Satellite Name": "Constellation 1 172",
        "Satellite Number": 172,
        "Semi-Major Axis(m)": 7083131.272910544,
        "Time(s)": 7
    },
    {
        "Altitude(m)": 715752.8788319607,
        "Argument of Periapsis(deg)": 0.0004795840499632449,
        "Eccentricity": 0.0,
        "Inclination(deg)": 45.0,
        "Latitude(deg)": -40.01307375348859,
        "Longitude(deg)": -121.61718801744468,
        "Mean Anomaly(deg)": 295.03110912199924,
        "RAAN(deg)": 34.999547286675444,
        "Satellite Name": "Constellation 1 172",
        "Satellite Number": 172,
        "Semi-Major Axis(m)": 7083131.272910544,
        "Time(s)": 8
    },
    {
        "Altitude(m)": 715743.0819031808,
        "Argument of Periapsis(deg)": 0.0005395320562086505,
        "Eccentricity": 0.0,
        "Inclination(deg)": 45.0,
        "Latitude(deg)": -39.989425064280674,
        "Longitude(deg)": -121.5486473276412,
        "Mean Anomaly(deg)": 295.09181026224906,
        "RAAN(deg)": 34.99949069750987,
        "Satellite Name": "Constellation 1 172",
        "Satellite Number": 172,
        "Semi-Major Axis(m)": 7083131.272910544,
        "Time(s)": 9
    },
    {
        "Altitude(m)": 715733.2664158155,
        "Argument of Periapsis(deg)": 0.0005994800624540561,
        "Eccentricity": 0.0,
        "Inclination(deg)": 45.0,
        "Latitude(deg)": -39.96573075699135,
        "Longitude(deg)": -121.48015664117816,
        "Mean Anomaly(deg)": 295.152511402499,
        "RAAN(deg)": 34.9994341083443,
        "Satellite Name": "Constellation 1 172",
        "Satellite Number": 172,
        "Semi-Major Axis(m)": 7083131.272910544,
        "Time(s)": 10
    },
    {
        "Altitude(m)": 715723.4324056546,
        "Argument of Periapsis(deg)": 0.0006594280686994618,
        "Eccentricity": 0.0,
        "Inclination(deg)": 45.0,
        "Latitude(deg)": -39.94199090027326,
        "Longitude(deg)": -121.4117159775565,
        "Mean Anomaly(deg)": 295.2132125427489,
        "RAAN(deg)": 34.99937751917873,
        "Satellite Name": "Constellation 1 172",
        "Satellite Number": 172,
        "Semi-Major Axis(m)": 7083131.272910544,
        "Time(s)": 11
    },
    {
        "Altitude(m)": 715713.579908558,
        "Argument of Periapsis(deg)": 0.0007193760749448675,
        "Eccentricity": 0.0,
        "Inclination(deg)": 45.0,
        "Latitude(deg)": -39.918205562785865,
        "Longitude(deg)": -121.343325355831,
        "Mean Anomaly(deg)": 295.2739136829988,
        "RAAN(deg)": 34.99932093001316,
        "Satellite Name": "Constellation 1 172",
        "Satellite Number": 172,
        "Semi-Major Axis(m)": 7083131.272910544,
        "Time(s)": 12
    },
    {
        "Altitude(m)": 715703.7089604493,
        "Argument of Periapsis(deg)": 0.000779324081190273,
        "Eccentricity": 0.0,
        "Inclination(deg)": 45.0,
        "Latitude(deg)": -39.89437481319451,
        "Longitude(deg)": -121.27498479461117,
        "Mean Anomaly(deg)": 295.33461482324867,
        "RAAN(deg)": 34.99926434084759,
        "Satellite Name": "Constellation 1 172",
        "Satellite Number": 172,
        "Semi-Major Axis(m)": 7083131.272910544,
        "Time(s)": 13
    },
    {
        "Altitude(m)": 715693.8195973169,
        "Argument of Periapsis(deg)": 0.0008392720874356787,
        "Eccentricity": 0.0,
        "Inclination(deg)": 45.0,
        "Latitude(deg)": -39.870498720170026,
        "Longitude(deg)": -121.20669431206265,
        "Mean Anomaly(deg)": 295.3953159634986,
        "RAAN(deg)": 34.99920775168203,
        "Satellite Name": "Constellation 1 172",
        "Satellite Number": 172,
        "Semi-Major Axis(m)": 7083131.272910544,
        "Time(s)": 14
    },
    {
        "Altitude(m)": 715683.9118552175,
        "Argument of Periapsis(deg)": 0.0008992200936810842,
        "Eccentricity": 0.0,
        "Inclination(deg)": 45.0,
        "Latitude(deg)": -39.84657735238774,
        "Longitude(deg)": -121.13845409400584,
        "Mean Anomaly(deg)": 295.45601710374854,
        "RAAN(deg)": 34.999151162516455,
        "Satellite Name": "Constellation 1 172",
        "Satellite Number": 172,
        "Semi-Major Axis(m)": 7083131.272910544,
        "Time(s)": 15
    },
    {
        "Altitude(m)": 715673.9857702607,
        "Argument of Periapsis(deg)": 0.0009591680999264898,
        "Eccentricity": 0.0,
        "Inclination(deg)": 45.0,
        "Latitude(deg)": -39.82261077852795,
        "Longitude(deg)": -121.0702638215287,
        "Mean Anomaly(deg)": 295.5167182439984,
        "RAAN(deg)": 34.99909457335089,
        "Satellite Name": "Constellation 1 172",
        "Satellite Number": 172,
        "Semi-Major Axis(m)": 7083131.272910544,
        "Time(s)": 16
    },
    {
        "Altitude(m)": 715664.0413786364,
        "Argument of Periapsis(deg)": 0.0010191161061718953,
        "Eccentricity": 0.0,
        "Inclination(deg)": 45.0,
        "Latitude(deg)": -39.79859906727381,
        "Longitude(deg)": -121.00212367957057,
        "Mean Anomaly(deg)": 295.5774193842483,
        "RAAN(deg)": 34.999037984185314,
        "Satellite Name": "Constellation 1 172",
        "Satellite Number": 172,
        "Semi-Major Axis(m)": 7083131.272910544,
        "Time(s)": 17
    },
    {
        "Altitude(m)": 715654.0787165852,
        "Argument of Periapsis(deg)": 0.001079064112417301,
        "Eccentricity": 0.0,
        "Inclination(deg)": 45.0,
        "Latitude(deg)": -39.77454228731164,
        "Longitude(deg)": -120.93403368453527,
        "Mean Anomaly(deg)": 295.6381205244982,
        "RAAN(deg)": 34.99898139501975,
        "Satellite Name": "Constellation 1 172",
        "Satellite Number": 172,
        "Semi-Major Axis(m)": 7083131.272910544,
        "Time(s)": 18
    }
]